0 COSMOS 2212
1 22183U 92068B   13281.48344017  .00000039  00000-0  15682-3 0  6935
2 22183 082.5912 045.9525 0001387 249.9161 178.8992 12.63019593966662
0 COSMOS 2212
1 22183U 92068B   13283.79070058 -.00000000  00000-0 -59234-4 0  6945
2 22183 082.5917 044.4806 0001452 241.3720 233.0199 12.63019838966950
0 COSMOS 2212
1 22183U 92068B   13286.07415109 -.00000005  00000-0 -84799-4 0  6959
2 22183 082.5922 043.0241 0001525 234.1594 177.6056 12.63019789967247
0 COSMOS 2212
1 22183U 92068B   13288.13429735  .00000038  00000-0  15136-3 0  6961
2 22183 082.5926 041.7101 0001603 227.9620 186.3484 12.63019645967500
0 COSMOS 2212
1 22183U 92068B   13290.44889916  .00000044  00000-0  18311-3 0  6975
2 22183 082.5927 040.2341 0001690 221.3130 271.9400 12.63019518967790
0 COSMOS 2212
1 22183U 92068B   13293.12341757  .00000036  00000-0  14288-3 0  6980
2 22183 082.5925 038.5285 0001804 214.6002 193.2713 12.63019628968139
0 COSMOS 2212
1 22183U 92068B   13295.34470936  .00000026  00000-0  84070-4 0  6995
2 22183 082.5926 037.1119 0001893 208.9413 213.8152 12.63020054968413
